[{"OBJECT_NAME":"QIANFAN-69","OBJECT_ID":"2025-016Q","EPOCH":"2026-03-03T03:08:46.785120","MEAN_MOTION":13.50999567,"ECCENTRICITY":0.0017989,"INCLINATION":88.9665,"RA_OF_ASC_NODE":94.6325,"ARG_OF_PERICENTER":111.404,"MEAN_ANOMALY":248.9032,"EPHEMERIS_TYPE":0,"CLASSIFICATION_TYPE":"U","NORAD_CAT_ID":62799,"ELEMENT_SET_NO":999,"REV_AT_EPOCH":5813,"BSTAR":0.00010196,"MEAN_MOTION_DOT":7.8e-7,"MEAN_MOTION_DDOT":0},{"OBJECT_NAME":"QIANFAN-70","OBJECT_ID":"2025-016R","EPOCH":"2026-03-03T03:32:24.000000","MEAN_MOTION":13.50996951,"ECCENTRICITY":0.0017549,"INCLINATION":88.969,"RA_OF_ASC_NODE":94.7866,"ARG_OF_PERICENTER":102.4981,"MEAN_ANOMALY":257.8135,"EPHEMERIS_TYPE":0,"CLASSIFICATION_TYPE":"U","NORAD_CAT_ID":62800,"ELEMENT_SET_NO":999,"REV_AT_EPOCH":5809,"BSTAR":8.6601e-5,"MEAN_MOTION_DOT":6.8e-7,"MEAN_MOTION_DDOT":0},{"OBJECT_NAME":"QIANFAN-71","OBJECT_ID":"2025-016S","EPOCH":"2026-03-03T03:26:23.506368","MEAN_MOTION":13.50996429,"ECCENTRICITY":0.0017777,"INCLINATION":88.9684,"RA_OF_ASC_NODE":94.7615,"ARG_OF_PERICENTER":114.1451,"MEAN_ANOMALY":246.1561,"EPHEMERIS_TYPE":0,"CLASSIFICATION_TYPE":"U","NORAD_CAT_ID":62801,"ELEMENT_SET_NO":999,"REV_AT_EPOCH":5809,"BSTAR":8.4797e-5,"MEAN_MOTION_DOT":6.7e-7,"MEAN_MOTION_DDOT":0},{"OBJECT_NAME":"QIANFAN-72","OBJECT_ID":"2025-016T","EPOCH":"2026-03-03T03:50:06.233568","MEAN_MOTION":13.50996124,"ECCENTRICITY":0.002095,"INCLINATION":88.9674,"RA_OF_ASC_NODE":94.7654,"ARG_OF_PERICENTER":120.9678,"MEAN_ANOMALY":239.3535,"EPHEMERIS_TYPE":0,"CLASSIFICATION_TYPE":"U","NORAD_CAT_ID":62802,"ELEMENT_SET_NO":999,"REV_AT_EPOCH":5808,"BSTAR":8.0149e-5,"MEAN_MOTION_DOT":6.4e-7,"MEAN_MOTION_DDOT":0},{"OBJECT_NAME":"QIANFAN-73","OBJECT_ID":"2025-046A","EPOCH":"2026-03-03T02:42:07.822656","MEAN_MOTION":13.50997554,"ECCENTRICITY":0.0013126,"INCLINATION":88.9764,"RA_OF_ASC_NODE":311.7229,"ARG_OF_PERICENTER":251.2817,"MEAN_ANOMALY":108.691,"EPHEMERIS_TYPE":0,"CLASSIFICATION_TYPE":"U","NORAD_CAT_ID":63159,"ELEMENT_SET_NO":999,"REV_AT_EPOCH":5826,"BSTAR":0.00025242,"MEAN_MOTION_DOT":1.75e-6,"MEAN_MOTION_DDOT":0},{"OBJECT_NAME":"QIANFAN-74","OBJECT_ID":"2025-046B","EPOCH":"2026-03-03T04:05:10.075200","MEAN_MOTION":13.50997345,"ECCENTRICITY":0.0001885,"INCLINATION":88.9764,"RA_OF_ASC_NODE":311.6057,"ARG_OF_PERICENTER":78.0975,"MEAN_ANOMALY":282.0388,"EPHEMERIS_TYPE":0,"CLASSIFICATION_TYPE":"U","NORAD_CAT_ID":63160,"ELEMENT_SET_NO":999,"REV_AT_EPOCH":5833,"BSTAR":0.00031148,"MEAN_MOTION_DOT":2.13e-6,"MEAN_MOTION_DDOT":0},{"OBJECT_NAME":"QIANFAN-75","OBJECT_ID":"2025-046C","EPOCH":"2026-03-03T03:46:39.010944","MEAN_MOTION":13.51001133,"ECCENTRICITY":0.0014324,"INCLINATION":88.9766,"RA_OF_ASC_NODE":311.8418,"ARG_OF_PERICENTER":254.8064,"MEAN_ANOMALY":105.1503,"EPHEMERIS_TYPE":0,"CLASSIFICATION_TYPE":"U","NORAD_CAT_ID":63161,"ELEMENT_SET_NO":999,"REV_AT_EPOCH":5820,"BSTAR":0.00028698,"MEAN_MOTION_DOT":1.97e-6,"MEAN_MOTION_DDOT":0},{"OBJECT_NAME":"QIANFAN-76","OBJECT_ID":"2025-046D","EPOCH":"2026-03-03T03:41:23.692416","MEAN_MOTION":13.51013486,"ECCENTRICITY":0.0011877,"INCLINATION":88.9766,"RA_OF_ASC_NODE":311.8222,"ARG_OF_PERICENTER":255.5577,"MEAN_ANOMALY":104.4257,"EPHEMERIS_TYPE":0,"CLASSIFICATION_TYPE":"U","NORAD_CAT_ID":63162,"ELEMENT_SET_NO":999,"REV_AT_EPOCH":5821,"BSTAR":0.00029675,"MEAN_MOTION_DOT":2.04e-6,"MEAN_MOTION_DDOT":0},{"OBJECT_NAME":"QIANFAN-77","OBJECT_ID":"2025-046E","EPOCH":"2026-03-03T04:07:59.585952","MEAN_MOTION":13.96172503,"ECCENTRICITY":0.0014205,"INCLINATION":88.9761,"RA_OF_ASC_NODE":309.1665,"ARG_OF_PERICENTER":182.3593,"MEAN_ANOMALY":177.752,"EPHEMERIS_TYPE":0,"CLASSIFICATION_TYPE":"U","NORAD_CAT_ID":63163,"ELEMENT_SET_NO":999,"REV_AT_EPOCH":5967,"BSTAR":0.0002923,"MEAN_MOTION_DOT":4.15e-6,"MEAN_MOTION_DDOT":0},{"OBJECT_NAME":"QIANFAN-78","OBJECT_ID":"2025-046F","EPOCH":"2026-03-03T02:53:59.257536","MEAN_MOTION":13.50997564,"ECCENTRICITY":0.0013205,"INCLINATION":88.9765,"RA_OF_ASC_NODE":311.6889,"ARG_OF_PERICENTER":258.3512,"MEAN_ANOMALY":101.6158,"EPHEMERIS_TYPE":0,"CLASSIFICATION_TYPE":"U","NORAD_CAT_ID":63164,"ELEMENT_SET_NO":999,"REV_AT_EPOCH":5828,"BSTAR":0.00029532,"MEAN_MOTION_DOT":2.03e-6,"MEAN_MOTION_DDOT":0},{"OBJECT_NAME":"QIANFAN-79","OBJECT_ID":"2025-046G","EPOCH":"2026-03-03T03:35:41.481024","MEAN_MOTION":13.5100781,"ECCENTRICITY":0.0013064,"INCLINATION":88.9768,"RA_OF_ASC_NODE":311.7965,"ARG_OF_PERICENTER":256.5089,"MEAN_ANOMALY":103.4607,"EPHEMERIS_TYPE":0,"CLASSIFICATION_TYPE":"U","NORAD_CAT_ID":63165,"ELEMENT_SET_NO":999,"REV_AT_EPOCH":5823,"BSTAR":0.00028569,"MEAN_MOTION_DOT":1.96e-6,"MEAN_MOTION_DDOT":0},{"OBJECT_NAME":"QIANFAN-80","OBJECT_ID":"2025-046H","EPOCH":"2026-03-03T03:59:07.986624","MEAN_MOTION":13.50997403,"ECCENTRICITY":0.0011901,"INCLINATION":88.9765,"RA_OF_ASC_NODE":311.4996,"ARG_OF_PERICENTER":261.2189,"MEAN_ANOMALY":98.7614,"EPHEMERIS_TYPE":0,"CLASSIFICATION_TYPE":"U","NORAD_CAT_ID":63166,"ELEMENT_SET_NO":999,"REV_AT_EPOCH":5839,"BSTAR":0.00028265,"MEAN_MOTION_DOT":1.94e-6,"MEAN_MOTION_DDOT":0},{"OBJECT_NAME":"QIANFAN-81","OBJECT_ID":"2025-046J","EPOCH":"2026-03-03T03:27:38.131776","MEAN_MOTION":13.5098329,"ECCENTRICITY":0.0012941,"INCLINATION":88.9765,"RA_OF_ASC_NODE":311.5697,"ARG_OF_PERICENTER":248.9279,"MEAN_ANOMALY":111.0489,"EPHEMERIS_TYPE":0,"CLASSIFICATION_TYPE":"U","NORAD_CAT_ID":63167,"ELEMENT_SET_NO":999,"REV_AT_EPOCH":5834,"BSTAR":0.00024903,"MEAN_MOTION_DOT":1.73e-6,"MEAN_MOTION_DDOT":0},{"OBJECT_NAME":"QIANFAN-82","OBJECT_ID":"2025-046K","EPOCH":"2026-03-03T04:16:58.359072","MEAN_MOTION":13.50998809,"ECCENTRICITY":0.0011022,"INCLINATION":88.9765,"RA_OF_ASC_NODE":311.6101,"ARG_OF_PERICENTER":256.8752,"MEAN_ANOMALY":103.117,"EPHEMERIS_TYPE":0,"CLASSIFICATION_TYPE":"U","NORAD_CAT_ID":63168,"ELEMENT_SET_NO":999,"REV_AT_EPOCH":5833,"BSTAR":0.00028329,"MEAN_MOTION_DOT":1.95e-6,"MEAN_MOTION_DDOT":0},{"OBJECT_NAME":"QIANFAN-83","OBJECT_ID":"2025-046L","EPOCH":"2026-03-03T03:27:09.118656","MEAN_MOTION":13.62019505,"ECCENTRICITY":0.0012374,"INCLINATION":88.9766,"RA_OF_ASC_NODE":311.2322,"ARG_OF_PERICENTER":234.6844,"MEAN_ANOMALY":125.3157,"EPHEMERIS_TYPE":0,"CLASSIFICATION_TYPE":"U","NORAD_CAT_ID":63169,"ELEMENT_SET_NO":999,"REV_AT_EPOCH":5854,"BSTAR":0.00035187,"MEAN_MOTION_DOT":2.83e-6,"MEAN_MOTION_DDOT":0},{"OBJECT_NAME":"QIANFAN-84","OBJECT_ID":"2025-046M","EPOCH":"2026-03-03T03:10:17.404032","MEAN_MOTION":13.50972337,"ECCENTRICITY":0.0014077,"INCLINATION":88.9762,"RA_OF_ASC_NODE":311.747,"ARG_OF_PERICENTER":252.9066,"MEAN_ANOMALY":107.0543,"EPHEMERIS_TYPE":0,"CLASSIFICATION_TYPE":"U","NORAD_CAT_ID":63170,"ELEMENT_SET_NO":999,"REV_AT_EPOCH":5825,"BSTAR":-0.00012272,"MEAN_MOTION_DOT":-6.7e-7,"MEAN_MOTION_DDOT":0},{"OBJECT_NAME":"QIANFAN-85","OBJECT_ID":"2025-046N","EPOCH":"2026-03-03T03:05:51.036288","MEAN_MOTION":13.51001474,"ECCENTRICITY":0.0011431,"INCLINATION":88.9765,"RA_OF_ASC_NODE":311.6192,"ARG_OF_PERICENTER":255.7058,"MEAN_ANOMALY":104.2824,"EPHEMERIS_TYPE":0,"CLASSIFICATION_TYPE":"U","NORAD_CAT_ID":63171,"ELEMENT_SET_NO":999,"REV_AT_EPOCH":5832,"BSTAR":0.00027594,"MEAN_MOTION_DOT":1.9e-6,"MEAN_MOTION_DDOT":0}]
