QIANFAN-69              
1 62799U 25016Q   26062.13109705  .00000078  00000+0  10196-3 0  9993
2 62799  88.9665  94.6325 0017989 111.4040 248.9032 13.50999567 58130
QIANFAN-70              
1 62800U 25016R   26062.14750000  .00000068  00000+0  86601-4 0  9991
2 62800  88.9690  94.7866 0017549 102.4981 257.8135 13.50996951 58090
QIANFAN-71              
1 62801U 25016S   26062.14332762  .00000067  00000+0  84797-4 0  9996
2 62801  88.9684  94.7615 0017777 114.1451 246.1561 13.50996429 58095
QIANFAN-72              
1 62802U 25016T   26062.15979437  .00000064  00000+0  80149-4 0  9998
2 62802  88.9674  94.7654 0020950 120.9678 239.3535 13.50996124 58087
QIANFAN-73              
1 63159U 25046A   26062.11259054  .00000175  00000+0  25242-3 0  9994
2 63159  88.9764 311.7229 0013126 251.2817 108.6910 13.50997554 58266
QIANFAN-74              
1 63160U 25046B   26062.17025550  .00000213  00000+0  31148-3 0  9999
2 63160  88.9764 311.6057 0001885  78.0975 282.0388 13.50997345 58337
QIANFAN-75              
1 63161U 25046C   26062.15739596  .00000197  00000+0  28698-3 0  9997
2 63161  88.9766 311.8418 0014324 254.8064 105.1503 13.51001133 58200
QIANFAN-76              
1 63162U 25046D   26062.15374644  .00000204  00000+0  29675-3 0  9992
2 63162  88.9766 311.8222 0011877 255.5577 104.4257 13.51013486 58214
QIANFAN-77              
1 63163U 25046E   26062.17221743  .00000415  00000+0  29230-3 0  9997
2 63163  88.9761 309.1665 0014205 182.3593 177.7520 13.96172503 59676
QIANFAN-78              
1 63164U 25046F   26062.12082474  .00000203  00000+0  29532-3 0  9999
2 63164  88.9765 311.6889 0013205 258.3512 101.6158 13.50997564 58282
QIANFAN-79              
1 63165U 25046G   26062.14978566  .00000196  00000+0  28569-3 0  9998
2 63165  88.9768 311.7965 0013064 256.5089 103.4607 13.51007810 58235
QIANFAN-80              
1 63166U 25046H   26062.16606466  .00000194  00000+0  28265-3 0  9999
2 63166  88.9765 311.4996 0011901 261.2189  98.7614 13.50997403 58392
QIANFAN-81              
1 63167U 25046J   26062.14419134  .00000173  00000+0  24903-3 0  9994
2 63167  88.9765 311.5697 0012941 248.9279 111.0489 13.50983290 58342
QIANFAN-82              
1 63168U 25046K   26062.17845323  .00000195  00000+0  28329-3 0  9991
2 63168  88.9765 311.6101 0011022 256.8752 103.1170 13.50998809 58337
QIANFAN-83              
1 63169U 25046L   26062.14385554  .00000283  00000+0  35187-3 0  9992
2 63169  88.9766 311.2322 0012374 234.6844 125.3157 13.62019505 58541
QIANFAN-84              
1 63170U 25046M   26062.13214588 -.00000067  00000+0 -12272-3 0  9993
2 63170  88.9762 311.7470 0014077 252.9066 107.0543 13.50972337 58251
QIANFAN-85              
1 63171U 25046N   26062.12906292  .00000190  00000+0  27594-3 0  9991
2 63171  88.9765 311.6192 0011431 255.7058 104.2824 13.51001474 58323
